{"type": "FeatureCollection", "features": [ {"type": "Feature", "properties": {"norad_id": 34909, "name": "COSMOS 2251 DEB", "group": "cosmos-2251-debris", "lat": 32.577386046194505, "lon": 95.70836810397593, "alt_km": 693.0766171505038, "timestamp": "2025-12-08T08:59:01.161913+00:00", "meta": {"OBJECT_NAME": "COSMOS 2251 DEB", "OBJECT_ID": "1993-036ADE", "EPOCH": "2025-12-07T13:19:50.168064", "MEAN_MOTION": 14.77761323, "ECCENTRICITY": 0.00848918, "INCLINATION": 74.0148, "RA_OF_ASC_NODE": 86.763, "ARG_OF_PERICENTER": 223.7192, "MEAN_ANOMALY": 135.724, "EPHEMERIS_TYPE": 0, "CLASSIFICATION_TYPE": "U", "NORAD_CAT_ID": 34909, "ELEMENT_SET_NO": 999, "REV_AT_EPOCH": 66775, "BSTAR": 0.0010824796, "MEAN_MOTION_DOT": 8.222e-05, "MEAN_MOTION_DDOT": 0}, "tle": {"line1": "1 34909U 93036ADE 25341.55544176  .00008222  00000+0  10825-2 0  9999", "line2": "2 34909  74.0148  86.7630 0084891 223.7192 135.7240 14.77761323667751"}}, "geometry": {"type": "Point", "coordinates": [95.70836810397593, 32.577386046194505]}}, {"type": "Feature", "properties": {"norad_id": 34910, "name": "COSMOS 2251 DEB", "group": "cosmos-2251-debris", "lat": 31.242845229628134, "lon": 118.42235196836043, "alt_km": 1453.2628493568454, "timestamp": "2025-12-08T08:59:01.161923+00:00", "meta": {"OBJECT_NAME": "COSMOS 2251 DEB", "OBJECT_ID": "1993-036ADF", "EPOCH": "2025-12-04T03:27:09.174816", "MEAN_MOTION": 13.3765034, "ECCENTRICITY": 0.04679235, "INCLINATION": 73.8763, "RA_OF_ASC_NODE": 114.9889, "ARG_OF_PERICENTER": 235.2756, "MEAN_ANOMALY": 311.3517, "EPHEMERIS_TYPE": 0, "CLASSIFICATION_TYPE": "U", "NORAD_CAT_ID": 34910, "ELEMENT_SET_NO": 999, "REV_AT_EPOCH": 81409, "BSTAR": 0.0018660381, "MEAN_MOTION_DOT": 1.821e-05, "MEAN_MOTION_DDOT": 0}, "tle": {"line1": "1 34910U 93036ADF 25338.14385619  .00001821  00000+0  18660-2 0  9990", "line2": "2 34910  73.8763 114.9889 0467923 235.2756 311.3517 13.37650340814099"}}, "geometry": {"type": "Point", "coordinates": [118.42235196836043, 31.242845229628134]}}, {"type": "Feature", "properties": {"norad_id": 34911, "name": "COSMOS 2251 DEB", "group": "cosmos-2251-debris", "lat": 56.27241709531359, "lon": -81.55590486564522, "alt_km": 644.3422100898715, "timestamp": "2025-12-08T08:59:01.161933+00:00", "meta": {"OBJECT_NAME": "COSMOS 2251 DEB", "OBJECT_ID": "1993-036ADG", "EPOCH": "2025-12-07T19:48:50.174208", "MEAN_MOTION": 14.59359409, "ECCENTRICITY": 0.00833686, "INCLINATION": 74.0411, "RA_OF_ASC_NODE": 254.1089, "ARG_OF_PERICENTER": 20.7952, "MEAN_ANOMALY": 36.814, "EPHEMERIS_TYPE": 0, "CLASSIFICATION_TYPE": "U", "NORAD_CAT_ID": 34911, "ELEMENT_SET_NO": 999, "REV_AT_EPOCH": 88515, "BSTAR": 0.0003184734, "MEAN_MOTION_DOT": 1.55e-05, "MEAN_MOTION_DDOT": 0}, "tle": {"line1": "1 34911U 93036ADG 25341.82558072  .00001550  00000+0  31847-3 0  9997", "line2": "2 34911  74.0411 254.1089 0083368  20.7952  36.8140 14.59359409885157"}}, "geometry": {"type": "Point", "coordinates": [-81.55590486564522, 56.27241709531359]}}, {"type": "Feature", "properties": {"norad_id": 34913, "name": "COSMOS 2251 DEB", "group": "cosmos-2251-debris", "lat": 74.0000975566859, "lon": 23.29724960606848, "alt_km": 759.348379255167, "timestamp": "2025-12-08T08:59:01.161943+00:00", "meta": {"OBJECT_NAME": "COSMOS 2251 DEB", "OBJECT_ID": "1993-036ADJ", "EPOCH": "2025-12-07T14:57:32.821920", "MEAN_MOTION": 14.34634947, "ECCENTRICITY": 0.00201639, "INCLINATION": 74.028, "RA_OF_ASC_NODE": 291.8739, "ARG_OF_PERICENTER": 43.4635, "MEAN_ANOMALY": 129.8939, "EPHEMERIS_TYPE": 0, "CLASSIFICATION_TYPE": "U", "NORAD_CAT_ID": 34913, "ELEMENT_SET_NO": 999, "REV_AT_EPOCH": 65114, "BSTAR": 0.00010029245, "MEAN_MOTION_DOT": 2.58e-06, "MEAN_MOTION_DDOT": 0}, "tle": {"line1": "1 34913U 93036ADJ 25341.62329655  .00000258  00000+0  10029-3 0  9993", "line2": "2 34913  74.0280 291.8739 0020163  43.4635 129.8939 14.34634947651142"}}, "geometry": {"type": "Point", "coordinates": [23.29724960606848, 74.0000975566859]}}, {"type": "Feature", "properties": {"norad_id": 34918, "name": "COSMOS 2251 DEB", "group": "cosmos-2251-debris", "lat": -0.12876771974121606, "lon": 141.9993755068617, "alt_km": 700.4928650373759, "timestamp": "2025-12-08T08:59:01.161953+00:00", "meta": {"OBJECT_NAME": "COSMOS 2251 DEB", "OBJECT_ID": "1993-036ADP", "EPOCH": "2025-12-02T07:49:20.078112", "MEAN_MOTION": 14.60858458, "ECCENTRICITY": 0.0034182, "INCLINATION": 74.0712, "RA_OF_ASC_NODE": 333.4916, "ARG_OF_PERICENTER": 302.4495, "MEAN_ANOMALY": 120.4085, "EPHEMERIS_TYPE": 0, "CLASSIFICATION_TYPE": "U", "NORAD_CAT_ID": 34918, "ELEMENT_SET_NO": 999, "REV_AT_EPOCH": 65184, "BSTAR": 0.0024749, "MEAN_MOTION_DOT": 0.00012194, "MEAN_MOTION_DDOT": 0}, "tle": {"line1": "1 34918U 93036ADP 25336.32592683  .00012194  00000+0  24749-2 0  9997", "line2": "2 34918  74.0712 333.4916 0034182 302.4495 120.4085 14.60858458651845"}}, "geometry": {"type": "Point", "coordinates": [141.9993755068617, -0.12876771974121606]}}, {"type": "Feature", "properties": {"norad_id": 34924, "name": "COSMOS 2251 DEB", "group": "cosmos-2251-debris", "lat": -14.53743220906746, "lon": -77.96754409970681, "alt_km": 659.5965323251276, "timestamp": "2025-12-08T08:59:01.161982+00:00", "meta": {"OBJECT_NAME": "COSMOS 2251 DEB", "OBJECT_ID": "1993-036ADV", "EPOCH": "2025-12-07T17:51:59.025024", "MEAN_MOTION": 14.5995474, "ECCENTRICITY": 0.00548404, "INCLINATION": 74.0409, "RA_OF_ASC_NODE": 98.9779, "ARG_OF_PERICENTER": 184.8528, "MEAN_ANOMALY": 300.8119, "EPHEMERIS_TYPE": 0, "CLASSIFICATION_TYPE": "U", "NORAD_CAT_ID": 34924, "ELEMENT_SET_NO": 999, "REV_AT_EPOCH": 87650, "BSTAR": 0.0019218661, "MEAN_MOTION_DOT": 9.392e-05, "MEAN_MOTION_DDOT": 0}, "tle": {"line1": "1 34924U 93036ADV 25341.74443316  .00009392  00000+0  19219-2 0  9996", "line2": "2 34924  74.0409  98.9779 0054840 184.8528 300.8119 14.59954740876500"}}, "geometry": {"type": "Point", "coordinates": [-77.96754409970681, -14.53743220906746]}}, {"type": "Feature", "properties": {"norad_id": 34944, "name": "COSMOS 2251 DEB", "group": "cosmos-2251-debris", "lat": -57.827694939545914, "lon": -147.70944584811974, "alt_km": 988.4763284791479, "timestamp": "2025-12-08T08:59:01.161994+00:00", "meta": {"OBJECT_NAME": "COSMOS 2251 DEB", "OBJECT_ID": "1993-036ADX", "EPOCH": "2025-12-07T09:30:46.029312", "MEAN_MOTION": 14.14167925, "ECCENTRICITY": 0.02195348, "INCLINATION": 73.7495, "RA_OF_ASC_NODE": 241.6775, "ARG_OF_PERICENTER": 90.2413, "MEAN_ANOMALY": 272.3884, "EPHEMERIS_TYPE": 0, "CLASSIFICATION_TYPE": "U", "NORAD_CAT_ID": 34944, "ELEMENT_SET_NO": 999, "REV_AT_EPOCH": 64007, "BSTAR": 0.00099492053, "MEAN_MOTION_DOT": 2.364e-05, "MEAN_MOTION_DDOT": 0}, "tle": {"line1": "1 34944U 93036ADX 25341.39636608  .00002364  00000+0  99492-3 0  9991", "line2": "2 34944  73.7495 241.6775 0219534  90.2413 272.3884 14.14167925640077"}}, "geometry": {"type": "Point", "coordinates": [-147.70944584811974, -57.827694939545914]}}, {"type": "Feature", "properties": {"norad_id": 34946, "name": "COSMOS 2251 DEB", "group": "cosmos-2251-debris", "lat": 7.482915305297551, "lon": -7.365564554060319, "alt_km": 706.2082061748388, "timestamp": "2025-12-08T08:59:01.162004+00:00", "meta": {"OBJECT_NAME": "COSMOS 2251 DEB", "OBJECT_ID": "1993-036ADZ", "EPOCH": "2025-12-07T18:10:01.731072", "MEAN_MOTION": 14.61957351, "ECCENTRICITY": 0.00488268, "INCLINATION": 74.0232, "RA_OF_ASC_NODE": 351.66, "ARG_OF_PERICENTER": 130.4415, "MEAN_ANOMALY": 230.1026, "EPHEMERIS_TYPE": 0, "CLASSIFICATION_TYPE": "U", "NORAD_CAT_ID": 34946, "ELEMENT_SET_NO": 999, "REV_AT_EPOCH": 88136, "BSTAR": 0.00093618069, "MEAN_MOTION_DOT": 4.743e-05, "MEAN_MOTION_DDOT": 0}, "tle": {"line1": "1 34946U 93036ADZ 25341.75696448  .00004743  00000+0  93618-3 0  9998", "line2": "2 34946  74.0232 351.6600 0048826 130.4415 230.1026 14.61957351881365"}}, "geometry": {"type": "Point", "coordinates": [-7.365564554060319, 7.482915305297551]}}, {"type": "Feature", "properties": {"norad_id": 34949, "name": "COSMOS 2251 DEB", "group": "cosmos-2251-debris", "lat": 70.03302469710624, "lon": 170.2618240150041, "alt_km": 697.5077020402387, "timestamp": "2025-12-08T08:59:01.162015+00:00", "meta": {"OBJECT_NAME": "COSMOS 2251 DEB", "OBJECT_ID": "1993-036AEC", "EPOCH": "2025-12-07T03:18:23.961312", "MEAN_MOTION": 14.73936848, "ECCENTRICITY": 0.00804436, "INCLINATION": 74.018, "RA_OF_ASC_NODE": 120.5995, "ARG_OF_PERICENTER": 267.0595, "MEAN_ANOMALY": 92.137, "EPHEMERIS_TYPE": 0, "CLASSIFICATION_TYPE": "U", "NORAD_CAT_ID": 34949, "ELEMENT_SET_NO": 999, "REV_AT_EPOCH": 88279, "BSTAR": 0.00083987468, "MEAN_MOTION_DOT": 5.775e-05, "MEAN_MOTION_DDOT": 0}, "tle": {"line1": "1 34949U 93036AEC 25341.13777733  .00005775  00000+0  83987-3 0  9994", "line2": "2 34949  74.0180 120.5995 0080443 267.0595  92.1370 14.73936848882794"}}, "geometry": {"type": "Point", "coordinates": [170.2618240150041, 70.03302469710624]}}, {"type": "Feature", "properties": {"norad_id": 34953, "name": "COSMOS 2251 DEB", "group": "cosmos-2251-debris", "lat": 44.629070096826695, "lon": -160.43898866764854, "alt_km": 669.8895345295614, "timestamp": "2025-12-08T08:59:01.162025+00:00", "meta": {"OBJECT_NAME": "COSMOS 2251 DEB", "OBJECT_ID": "1993-036AEG", "EPOCH": "2025-12-07T21:44:28.481280", "MEAN_MOTION": 14.68892681, "ECCENTRICITY": 0.00577897, "INCLINATION": 74.0931, "RA_OF_ASC_NODE": 36.8144, "ARG_OF_PERICENTER": 30.2874, "MEAN_ANOMALY": 146.0062, "EPHEMERIS_TYPE": 0, "CLASSIFICATION_TYPE": "U", "NORAD_CAT_ID": 34953, "ELEMENT_SET_NO": 999, "REV_AT_EPOCH": 88057, "BSTAR": 0.0010643197, "MEAN_MOTION_DOT": 6.359e-05, "MEAN_MOTION_DDOT": 0}, "tle": {"line1": "1 34953U 93036AEG 25341.90588520  .00006359  00000+0  10643-2 0  9995", "line2": "2 34953  74.0931  36.8144 0057789  30.2874 146.0062 14.68892681880576"}}, "geometry": {"type": "Point", "coordinates": [-160.43898866764854, 44.629070096826695]}}]}